STARLINK-5467           
1 55660U 23021AJ  26068.65613122  .00002858  00000+0  24740-3 0  9990
2 55660  70.0014 164.3842 0003405 269.2197  90.8572 14.98299745169287
LEMUR-2-BALTO           
1 63395U 25052BH  26068.69493058  .00007621  00000+0  63456-3 0  9998
2 63395  97.6978 323.5166 0002279 359.2852   0.8367 14.98934076 53850
